SENTINEL-5P             
1 42969U 17064A   26194.28166183 -.00000002  00000+0  19924-4 0  9996
2 42969  98.7929 136.2282 0001102  92.7195 267.4107 14.19523086453263
