{"fetched_at":"2026-07-13T18:17:15.790Z","source":"https://celestrak.org/NORAD/elements/gp.php?NAME=SENTINEL&FORMAT=JSON","constellation":"sentinel-5p","records":[{"OBJECT_NAME":"SENTINEL-5P","OBJECT_ID":"2017-064A","EPOCH":"2026-07-13T06:45:35.582112","CLASSIFICATION_TYPE":"U","MEAN_MOTION":14.19523086,"ECCENTRICITY":0.0001102,"INCLINATION":98.7929,"RA_OF_ASC_NODE":136.2282,"ARG_OF_PERICENTER":92.7195,"MEAN_ANOMALY":267.4107,"EPHEMERIS_TYPE":0,"NORAD_CAT_ID":42969,"ELEMENT_SET_NO":999,"REV_AT_EPOCH":45326,"BSTAR":0.000019924038,"MEAN_MOTION_DOT":-2e-8,"MEAN_MOTION_DDOT":0}]}
